{
  "type": "FeatureCollection",
  "features": [
    {
      "type": "Feature",
      "properties": { "name": "Island Line", "mode": "mtr", "underground": true },
      "geometry": {
        "type": "LineString",
        "coordinates": [
          [114.1315, 22.2870],
          [114.1400, 22.2846],
          [114.1487, 22.2840],
          [114.1581, 22.2829],
          [114.1694, 22.2819],
          [114.1710, 22.2788],
          [114.1750, 22.2780],
          [114.1830, 22.2790],
          [114.1918, 22.2828],
          [114.2000, 22.2840],
          [114.2100, 22.2850],
          [114.2235, 22.2886]
        ]
      }
    },
    {
      "type": "Feature",
      "properties": { "name": "Tsuen Wan Line", "mode": "mtr", "underground": true },
      "geometry": {
        "type": "LineString",
        "coordinates": [
          [114.1694, 22.2819],
          [114.1694, 22.2950],
          [114.1694, 22.3048],
          [114.1694, 22.3165],
          [114.1694, 22.3260],
          [114.1589, 22.3340],
          [114.1500, 22.3410],
          [114.1390, 22.3485],
          [114.1315, 22.3560],
          [114.1260, 22.3635],
          [114.1180, 22.3710]
        ]
      }
    },
    {
      "type": "Feature",
      "properties": { "name": "Kwun Tong Line", "mode": "mtr", "underground": true },
      "geometry": {
        "type": "LineString",
        "coordinates": [
          [114.1694, 22.3048],
          [114.1830, 22.3048],
          [114.1910, 22.3080],
          [114.2000, 22.3117],
          [114.2089, 22.3150],
          [114.2170, 22.3187],
          [114.2260, 22.3222],
          [114.2330, 22.3250]
        ]
      }
    },
    {
      "type": "Feature",
      "properties": { "name": "Tseung Kwan O Line", "mode": "mtr", "underground": true },
      "geometry": {
        "type": "LineString",
        "coordinates": [
          [114.2235, 22.2886],
          [114.2300, 22.2950],
          [114.2380, 22.3010],
          [114.2450, 22.3070],
          [114.2520, 22.3130],
          [114.2600, 22.3180],
          [114.2680, 22.3040]
        ]
      }
    },
    {
      "type": "Feature",
      "properties": { "name": "East Rail Line", "mode": "rail", "underground": false },
      "geometry": {
        "type": "LineString",
        "coordinates": [
          [114.1694, 22.2819],
          [114.1694, 22.2950],
          [114.1750, 22.3100],
          [114.1800, 22.3300],
          [114.1830, 22.3480],
          [114.1830, 22.3720],
          [114.1780, 22.3920],
          [114.1780, 22.4180],
          [114.1830, 22.4430],
          [114.2000, 22.4600],
          [114.2100, 22.4900],
          [114.1390, 22.5010]
        ]
      }
    },
    {
      "type": "Feature",
      "properties": { "name": "Tuen Ma Line", "mode": "rail", "underground": false },
      "geometry": {
        "type": "LineString",
        "coordinates": [
          [113.9660, 22.3980],
          [113.9750, 22.3980],
          [114.0050, 22.3980],
          [114.0300, 22.3860],
          [114.0550, 22.3760],
          [114.0830, 22.3700],
          [114.1050, 22.3680],
          [114.1180, 22.3710],
          [114.1390, 22.3485],
          [114.1589, 22.3340],
          [114.1750, 22.3260],
          [114.1830, 22.3222],
          [114.2000, 22.3117],
          [114.2089, 22.3150]
        ]
      }
    },
    {
      "type": "Feature",
      "properties": { "name": "Airport Express", "mode": "mtr", "underground": false },
      "geometry": {
        "type": "LineString",
        "coordinates": [
          [114.1694, 22.2819],
          [114.1580, 22.2870],
          [114.1400, 22.2950],
          [114.1000, 22.3050],
          [114.0400, 22.3150],
          [113.9800, 22.3050],
          [113.9400, 22.2900],
          [113.9180, 22.3080]
        ]
      }
    },
    {
      "type": "Feature",
      "properties": { "name": "HK Tram", "mode": "tram", "underground": false },
      "geometry": {
        "type": "LineString",
        "coordinates": [
          [114.1315, 22.2870],
          [114.1400, 22.2846],
          [114.1487, 22.2840],
          [114.1581, 22.2829],
          [114.1694, 22.2819],
          [114.1830, 22.2790],
          [114.1918, 22.2828],
          [114.2000, 22.2840],
          [114.2100, 22.2850],
          [114.2235, 22.2886],
          [114.2300, 22.2900]
        ]
      }
    },
    {
      "type": "Feature",
      "properties": { "name": "Star Ferry (Central-TST)", "mode": "ferry", "underground": false },
      "geometry": {
        "type": "LineString",
        "coordinates": [
          [114.1694, 22.2819],
          [114.1694, 22.2950]
        ]
      }
    }
  ]
}
